{
  "type": "FeatureCollection",
  "features": [
    {
      "type": "Feature",
      "properties": {
        "norad_id": 31025,
        "name": "FENGYUN 1C DEB",
        "group": "fengyun-1c-debris",
        "lat": -20.627795860571805,
        "lon": 165.52554965873136,
        "alt_km": 918.2264532226836,
        "timestamp": "2025-12-24T22:42:22.311461+00:00",
        "meta_object_name": "FENGYUN 1C DEB",
        "meta_object_id": "1999-025BDT",
        "meta_epoch": "2025-12-07T05:28:07.771008",
        "meta_mean_motion": 14.20521805,
        "meta_eccentricity": 0.01734931,
        "meta_inclination": 98.58,
        "meta_ra_of_asc_node": 331.5793,
        "meta_arg_of_pericenter": 28.741,
        "meta_mean_anomaly": 332.3194,
        "meta_ephemeris_type": 0,
        "meta_classification_type": "U",
        "meta_norad_cat_id": 31025,
        "meta_element_set_no": 999,
        "meta_rev_at_epoch": 64287,
        "meta_bstar": 0.0012507545,
        "meta_mean_motion_dot": 3.084e-05,
        "meta_mean_motion_ddot": 0,
        "tle_line1": "1 31025U 99025BDT 25341.22786772  .00003084  00000+0  12508-2 0  9994",
        "tle_line2": "2 31025  98.5800 331.5793 0173493  28.7410 332.3194 14.20521805642873"
      },
      "geometry": {
        "type": "Point",
        "coordinates": [
          165.52554965873136,
          -20.627795860571805
        ]
      }
    },
    {
      "type": "Feature",
      "properties": {
        "norad_id": 31026,
        "name": "FENGYUN 1C DEB",
        "group": "fengyun-1c-debris",
        "lat": 13.33028851284189,
        "lon": -68.40040032692994,
        "alt_km": 1022.9713771985471,
        "timestamp": "2025-12-24T22:42:22.311471+00:00",
        "meta_object_name": "FENGYUN 1C DEB",
        "meta_object_id": "1999-025BDU",
        "meta_epoch": "2025-12-16T14:07:08.116896",
        "meta_mean_motion": 13.83400412,
        "meta_eccentricity": 0.01344959,
        "meta_inclination": 98.7801,
        "meta_ra_of_asc_node": 285.8947,
        "meta_arg_of_pericenter": 172.0946,
        "meta_mean_anomaly": 1.2766,
        "meta_ephemeris_type": 0,
        "meta_classification_type": "U",
        "meta_norad_cat_id": 31026,
        "meta_element_set_no": 999,
        "meta_rev_at_epoch": 68079,
        "meta_bstar": 0.00014906948,
        "meta_mean_motion_dot": 1.36e-06,
        "meta_mean_motion_ddot": 0,
        "tle_line1": "1 31026U 99025BDU 25350.58828839  .00000136  00000+0  14907-3 0  9996",
        "tle_line2": "2 31026  98.7801 285.8947 0134495 172.0946   1.2766 13.83400412680793"
      },
      "geometry": {
        "type": "Point",
        "coordinates": [
          -68.40040032692994,
          13.33028851284189
        ]
      }
    },
    {
      "type": "Feature",
      "properties": {
        "norad_id": 31028,
        "name": "FENGYUN 1C DEB",
        "group": "fengyun-1c-debris",
        "lat": -80.9366091248868,
        "lon": 3.834515699693658,
        "alt_km": 821.3736477655393,
        "timestamp": "2025-12-24T22:42:22.311486+00:00",
        "meta_object_name": "FENGYUN 1C DEB",
        "meta_object_id": "1999-025BDW",
        "meta_epoch": "2025-12-16T00:45:35.214048",
        "meta_mean_motion": 13.89074855,
        "meta_eccentricity": 0.01643907,
        "meta_inclination": 98.7052,
        "meta_ra_of_asc_node": 281.6698,
        "meta_arg_of_pericenter": 285.3135,
        "meta_mean_anomaly": 72.9908,
        "meta_ephemeris_type": 0,
        "meta_classification_type": "U",
        "meta_norad_cat_id": 31028,
        "meta_element_set_no": 999,
        "meta_rev_at_epoch": 62049,
        "meta_bstar": 0.0002880402,
        "meta_mean_motion_dot": 3.48e-06,
        "meta_mean_motion_ddot": 0,
        "tle_line1": "1 31028U 99025BDW 25350.03165757  .00000348  00000+0  28804-3 0  9997",
        "tle_line2": "2 31028  98.7052 281.6698 0164390 285.3135  72.9908 13.89074855620493"
      },
      "geometry": {
        "type": "Point",
        "coordinates": [
          3.834515699693658,
          -80.9366091248868
        ]
      }
    },
    {
      "type": "Feature",
      "properties": {
        "norad_id": 31029,
        "name": "FENGYUN 1C DEB",
        "group": "fengyun-1c-debris",
        "lat": 18.50356901749299,
        "lon": -106.84245506409148,
        "alt_km": 716.7319067449498,
        "timestamp": "2025-12-24T22:42:22.311496+00:00",
        "meta_object_name": "FENGYUN 1C DEB",
        "meta_object_id": "1999-025BDX",
        "meta_epoch": "2025-12-24T04:54:07.976736",
        "meta_mean_motion": 14.3434469,
        "meta_eccentricity": 0.00899708,
        "meta_inclination": 98.8588,
        "meta_ra_of_asc_node": 255.3893,
        "meta_arg_of_pericenter": 40.5384,
        "meta_mean_anomaly": 110.2675,
        "meta_ephemeris_type": 0,
        "meta_classification_type": "U",
        "meta_norad_cat_id": 31029,
        "meta_element_set_no": 999,
        "meta_rev_at_epoch": 97960,
        "meta_bstar": 0.0003475845,
        "meta_mean_motion_dot": 9.76e-06,
        "meta_mean_motion_ddot": 0,
        "tle_line1": "1 31029U 99025BDX 25358.20425899  .00000976  00000+0  34758-3 0  9993",
        "tle_line2": "2 31029  98.8588 255.3893 0089970  40.5384 110.2675 14.34344690979606"
      },
      "geometry": {
        "type": "Point",
        "coordinates": [
          -106.84245506409148,
          18.50356901749299
        ]
      }
    },
    {
      "type": "Feature",
      "properties": {
        "norad_id": 31030,
        "name": "FENGYUN 1C DEB",
        "group": "fengyun-1c-debris",
        "lat": 80.43361725485806,
        "lon": -52.90065241993407,
        "alt_km": 791.3820056893173,
        "timestamp": "2025-12-24T22:42:22.311508+00:00",
        "meta_object_name": "FENGYUN 1C DEB",
        "meta_object_id": "1999-025BDY",
        "meta_epoch": "2025-12-23T02:42:45.900864",
        "meta_mean_motion": 14.23711655,
        "meta_eccentricity": 0.00272265,
        "meta_inclination": 98.7654,
        "meta_ra_of_asc_node": 58.9998,
        "meta_arg_of_pericenter": 54.6084,
        "meta_mean_anomaly": 9.1816,
        "meta_ephemeris_type": 0,
        "meta_classification_type": "U",
        "meta_norad_cat_id": 31030,
        "meta_element_set_no": 999,
        "meta_rev_at_epoch": 96852,
        "meta_bstar": 0.00089691608,
        "meta_mean_motion_dot": 2.012e-05,
        "meta_mean_motion_ddot": 0,
        "tle_line1": "1 31030U 99025BDY 25357.11303126  .00002012  00000+0  89692-3 0  9992",
        "tle_line2": "2 31030  98.7654  58.9998 0027226  54.6084   9.1816 14.23711655968522"
      },
      "geometry": {
        "type": "Point",
        "coordinates": [
          -52.90065241993407,
          80.43361725485806
        ]
      }
    },
    {
      "type": "Feature",
      "properties": {
        "norad_id": 31031,
        "name": "FENGYUN 1C DEB",
        "group": "fengyun-1c-debris",
        "lat": -21.77975934100982,
        "lon": -79.96582427566406,
        "alt_km": 847.3766141119213,
        "timestamp": "2025-12-24T22:42:22.311519+00:00",
        "meta_object_name": "FENGYUN 1C DEB",
        "meta_object_id": "1999-025BDZ",
        "meta_epoch": "2025-12-24T00:55:32.714976",
        "meta_mean_motion": 14.2100357,
        "meta_eccentricity": 0.00282093,
        "meta_inclination": 99.0724,
        "meta_ra_of_asc_node": 275.4423,
        "meta_arg_of_pericenter": 153.5984,
        "meta_mean_anomaly": 224.558,
        "meta_ephemeris_type": 0,
        "meta_classification_type": "U",
        "meta_norad_cat_id": 31031,
        "meta_element_set_no": 999,
        "meta_rev_at_epoch": 97015,
        "meta_bstar": 0.00038521203,
        "meta_mean_motion_dot": 7.92e-06,
        "meta_mean_motion_ddot": 0,
        "tle_line1": "1 31031U 99025BDZ 25358.03857309  .00000792  00000+0  38521-3 0  9990",
        "tle_line2": "2 31031  99.0724 275.4423 0028209 153.5984 224.5580 14.21003570970155"
      },
      "geometry": {
        "type": "Point",
        "coordinates": [
          -79.96582427566406,
          -21.77975934100982
        ]
      }
    },
    {
      "type": "Feature",
      "properties": {
        "norad_id": 31032,
        "name": "FENGYUN 1C DEB",
        "group": "fengyun-1c-debris",
        "lat": -72.94897893000812,
        "lon": 155.46274740697302,
        "alt_km": 896.9487320029211,
        "timestamp": "2025-12-24T22:42:22.311531+00:00",
        "meta_object_name": "FENGYUN 1C DEB",
        "meta_object_id": "1999-025BEA",
        "meta_epoch": "2025-12-24T06:42:48.767904",
        "meta_mean_motion": 14.02245985,
        "meta_eccentricity": 0.01392196,
        "meta_inclination": 99.3994,
        "meta_ra_of_asc_node": 7.4641,
        "meta_arg_of_pericenter": 164.6264,
        "meta_mean_anomaly": 327.4375,
        "meta_ephemeris_type": 0,
        "meta_classification_type": "U",
        "meta_norad_cat_id": 31032,
        "meta_element_set_no": 999,
        "meta_rev_at_epoch": 95143,
        "meta_bstar": 0.0014529196,
        "meta_mean_motion_dot": 2.377e-05,
        "meta_mean_motion_ddot": 0,
        "tle_line1": "1 31032U 99025BEA 25358.27973111  .00002377  00000+0  14529-2 0  9999",
        "tle_line2": "2 31032  99.3994   7.4641 0139219 164.6264 327.4375 14.02245985951433"
      },
      "geometry": {
        "type": "Point",
        "coordinates": [
          155.46274740697302,
          -72.94897893000812
        ]
      }
    }
  ]
}